[{"OBJECT_NAME":"STARLINK-36502","OBJECT_ID":"2026-020L","EPOCH":"2026-03-09T22:00:01.999584","MEAN_MOTION":15.50676514,"ECCENTRICITY":0.00012899,"INCLINATION":42.9999,"RA_OF_ASC_NODE":140.9073,"ARG_OF_PERICENTER":271.5511,"MEAN_ANOMALY":340.6393,"EPHEMERIS_TYPE":0,"CLASSIFICATION_TYPE":"U","NORAD_CAT_ID":67627,"ELEMENT_SET_NO":999,"REV_AT_EPOCH":603,"BSTAR":-0.0038075571,"MEAN_MOTION_DOT":-0.00218353,"MEAN_MOTION_DDOT":0},{"OBJECT_NAME":"NOAA 16 DEB","OBJECT_ID":"2000-055AK","EPOCH":"2026-03-09T13:47:07.566432","MEAN_MOTION":15.52317837,"ECCENTRICITY":0.0035141,"INCLINATION":99.1738,"RA_OF_ASC_NODE":291.3669,"ARG_OF_PERICENTER":87.8909,"MEAN_ANOMALY":272.6361,"EPHEMERIS_TYPE":0,"CLASSIFICATION_TYPE":"U","NORAD_CAT_ID":41076,"ELEMENT_SET_NO":999,"REV_AT_EPOCH":55071,"BSTAR":0.0028982,"MEAN_MOTION_DOT":0.00184726,"MEAN_MOTION_DDOT":0}]
